STARLINK-31808          
1 59751U 24090X   24148.50001157 -.00061818  00000+0 -50607-3 0  9996
2 59751  43.0001 292.8069 0001464 269.1899  54.6199 15.69670403  3482
STARLINK-31822          
1 59752U 24090Y   24148.50001157 -.00048061  00000+0 -39175-3 0  9999
2 59752  42.9999 292.8018 0001500 269.0409  56.7514 15.69685135  3480
STARLINK-11125 [DTC]    
1 59753U 24091A   24148.53072261  .00092832  00000+0  40867-3 0  9991
2 59753  53.1615 178.2890 0001541  54.8628 305.2541 15.83816550  3231
STARLINK-11118 [DTC]    
1 59754U 24091B   24148.52873440  .00086675  00000+0  38373-3 0  9996
2 59754  53.1611 178.2754 0000874  56.8183 303.2924 15.83724069  3228
STARLINK-11132 [DTC]    
1 59755U 24091C   24148.25001157  .00002189  00000+0  12912-4 0  9995
2 59755  53.1603 179.6479 0000836 117.6752 103.8646 15.83788019  3180
STARLINK-11131 [DTC]    
1 59756U 24091D   24148.25001157  .00002590  00000+0  14684-4 0  9990
2 59756  53.1603 179.6243 0001067  87.1326 145.8673 15.83787768  3181
STARLINK-11114 [DTC]    
1 59757U 24091E   24148.25001157  .00005877  00000+0  29204-4 0  9996
2 59757  53.1602 179.6006 0001071  88.1995 156.2592 15.83786667  3123
STARLINK-11105 [DTC]    
1 59758U 24091F   24148.25001157  .00007318  00000+0  35563-4 0  9994
2 59758  53.1601 179.5767 0001072  88.4343 167.4826 15.83786183  3124
STARLINK-11097 [DTC]    
1 59759U 24091G   24148.25001157  .00002468  00000+0  14148-4 0  9992
2 59759  53.1600 179.5535 0001065  88.5727 178.8043 15.83788078  3184
STARLINK-11098 [DTC]    
1 59760U 24091H   24148.25001157  .00008586  00000+0  41160-4 0  9995
2 59760  53.1599 179.5298 0001070  88.2481 190.5881 15.83785768  3127
STARLINK-11117 [DTC]    
1 59761U 24091J   24147.91667824  .00002296  00000+0  13387-4 0  9999
2 59761  53.1600 181.1837 0000984  89.0009  99.6340 15.83788194  3133
STARLINK-11110 [DTC]    
1 59762U 24091K   24148.25001157  .00024916  00000+0  11313-3 0  9998
2 59762  53.1598 179.4824 0001034  88.5863 213.1725 15.83774911  3182
STARLINK-11104 [DTC]    
1 59763U 24091L   24148.50001157  .00078349  00000+0  34681-3 0  9999
2 59763  53.1599 178.2006 0001132  79.1955 220.2689 15.83766688  3225
STARLINK-11111 [DTC]    
1 59764U 24091M   24148.50001157 -.00097920  00000+0 -42052-3 0  9999
2 59764  53.1600 178.1553 0001104  84.7579 236.5757 15.84468320  3238
STARLINK-11106 [DTC]    
1 59765U 24091N   24148.50001157 -.00118480  00000+0 -51657-3 0  9996
2 59765  53.1600 178.1779 0001112  85.4065 225.0201 15.84229145  3233
STARLINK-31739          
1 59766U 24091P   24148.50001157 -.00187381  00000+0 -10199-2 0  9998
2 59766  53.1597 178.2478 0001083  81.4633 194.9427 15.79703999  3164
STARLINK-31828          
1 59767U 24091Q   24148.50001157 -.00046613  00000+0 -24556-3 0  9994
2 59767  53.1597 178.2698 0001170  78.4741 187.4362 15.79818034  2961
STARLINK-31826          
1 59768U 24091R   24148.50001157  .00078109  00000+0  41322-3 0  9998
2 59768  53.1597 178.2838 0001099  75.2871 183.6869 15.79925619  3225
STARLINK-31830          
1 59769U 24091S   24148.50001157 -.00041984  00000+0 -22135-3 0  9993
2 59769  53.1598 178.2557 0001146  77.5865 195.1006 15.79752866  2970
STARLINK-31829          
1 59770U 24091T   24148.50001157 -.00050248  00000+0 -26476-3 0  9990
2 59770  53.1597 178.2768 0001166  79.1832 183.4078 15.79846217  2972
STARLINK-31786          
1 59771U 24091U   24148.50001157  .00072804  00000+0  38746-3 0  9994
2 59771  53.1598 178.2622 0001112  75.5684 193.8561 15.79822045  3166
STARLINK-31835          
1 59772U 24091V   24148.50001157 -.00062643  00000+0 -33430-3 0  9992
2 59772  53.1598 178.2407 0001142  77.4059 202.5592 15.79659538  2973
STARLINK-31363          
1 59782U 24093A   24148.58334491  .00010745  84690-5  33819-4 0  9992
2 59782  43.0001 321.6530 0001562 271.5873 175.5936 15.94636102  2700
STARLINK-31868          
1 59783U 24093B   24148.58334491 -.00008357  00000+0 -31808-4 0  9994
2 59783  43.0005 322.1106 0001473 270.6673 354.1620 15.85224779  2695
STARLINK-31848          
1 59784U 24093C   24148.58334491 -.00023102  00000+0 -91960-4 0  9995
2 59784  43.0004 322.1055 0001483 270.3370 356.4565 15.85262909  2690
STARLINK-31890          
1 59785U 24093D   24148.58334491 -.00006988  00000+0 -26109-4 0  9992
2 59785  43.0005 322.1000 0001458 270.9411 358.0632 15.85307433  2680
STARLINK-31862          
1 59786U 24093E   24148.50001157 -.00177143  00000+0 -72529-3 0  9993
2 59786  43.0007 322.6034 0001556 268.5203 247.7459 15.85484125  2535
STARLINK-31870          
1 59787U 24093F   24148.50001157 -.00190715  00000+0 -78348-3 0  9999
2 59787  43.0007 322.6081 0001516 268.5259 245.8608 15.85451618  2632
STARLINK-31888          
1 59788U 24093G   24148.50001157 -.00189749  00000+0 -77495-3 0  9997
2 59788  43.0007 322.5926 0001518 268.5622 252.0147 15.85569644  2633
STARLINK-31863          
1 59789U 24093H   24148.50001157 -.00129329  00000+0 -52516-3 0  9993
2 59789  43.0007 322.5968 0001560 269.0792 249.8207 15.85518844  2683
STARLINK-31873          
1 59790U 24093J   24148.50001157 -.00178154  00000+0 -72511-3 0  9992
2 59790  43.0006 322.5858 0001544 268.8049 254.3898 15.85608898  2682
STARLINK-31865          
1 59791U 24093K   24148.50001157 -.00164671  00000+0 -66771-3 0  9993
2 59791  43.0007 322.5799 0001514 269.1559 256.3954 15.85649907  2686
STARLINK-31893          
1 59792U 24093L   24148.50001157 -.00171167  00000+0 -69326-3 0  9991
2 59792  43.0006 322.5745 0001508 269.0872 258.5896 15.85691010  2699
STARLINK-31901          
1 59793U 24093M   24148.50001157 -.00159739  00000+0 -64492-3 0  9992
2 59793  43.0006 322.5702 0001514 269.3768 259.9512 15.85724867  2683
STARLINK-31823          
1 59794U 24093N   24148.50001157 -.00160155  00000+0 -64538-3 0  9998
2 59794  43.0006 322.5647 0001513 269.3720 262.1394 15.85764690  2681
STARLINK-31916          
1 59795U 24093P   24148.50001157 -.00151724  00000+0 -60965-3 0  9991
2 59795  43.0006 322.5597 0001533 269.2669 264.2558 15.85799956  2687
STARLINK-31915          
1 59796U 24093Q   24148.50001157  .01241904  88916-3  16824-2 0  9991
2 59796  43.0013 322.0579 0007992 287.1468  85.4269 16.05626992  2697
STARLINK-31907          
1 59797U 24093R   24148.50001157 -.00156768  00000+0 -62912-3 0  9990
2 59797  43.0006 322.5544 0001529 269.2301 266.3859 15.85840074  2639
STARLINK-31687          
1 59798U 24093S   24148.50001157 -.00188022  00000+0 -74575-3 0  9997
2 59798  43.0005 322.5088 0001475 268.8967 284.7075 15.86164310  2687
STARLINK-31810          
1 59799U 24093T   24148.50001157 -.00226945  00000+0 -90971-3 0  9993
2 59799  43.0005 322.5263 0001556 269.8075 276.8731 15.86047769  2683
STARLINK-31812          
1 59800U 24093U   24148.58334491 -.00034873  00000+0 -13652-3 0  9992
2 59800  43.0002 322.0301 0001526 270.4184  26.2362 15.85803798  2764
STARLINK-31815          
1 59801U 24093V   24148.58334491 -.00026356  00000+0 -10228-3 0  9996
2 59801  43.0003 322.0255 0001466 269.1516  29.3098 15.85852831  2695
STARLINK-31814          
1 59802U 24093W   24148.58334491 -.00062906  00000+0 -24771-3 0  9996
2 59802  43.0003 322.0194 0001448 268.6043  32.2687 15.85899305  2691
STARLINK-31794          
1 59803U 24093X   24148.58334491 -.00030995  00000+0 -11987-3 0  9995
2 59803  43.0002 322.0018 0001517 269.4396  38.3959 15.86000847  2766
STARLINK-31824          
1 59804U 24093Y   24148.58334491 -.00027392  00000+0 -10576-3 0  9996
2 59804  43.0003 322.0075 0001449 269.2089  36.4236 15.85976426  2640
